OBJECT_NAME,OBJECT_ID,EPOCH,MEAN_MOTION,ECCENTRICITY,INCLINATION,RA_OF_ASC_NODE,ARG_OF_PERICENTER,MEAN_ANOMALY,EPHEMERIS_TYPE,CLASSIFICATION_TYPE,NORAD_CAT_ID,ELEMENT_SET_NO,REV_AT_EPOCH,BSTAR,MEAN_MOTION_DOT,MEAN_MOTION_DDOT
GAOFEN-11 01,2018-063A,2026-07-20T07:09:24.175008,15.56161847,.00038712,97.1266,268.1010,180.9022,179.2227,0,U,43585,999,44549,.11367257E-3,.7854E-4,0
ICESAT-2,2018-070A,2026-07-20T05:20:08.635488,15.28227057,.00050537,92.0086,299.9069,47.4970,312.6705,0,U,43613,999,43750,.18531398E-3,.5097E-4,0
HYSIS,2018-096A,2026-07-20T07:15:13.953312,14.78676363,.00017599,97.9819,267.7879,83.5597,276.5814,0,U,43719,999,41231,.82794581E-4,.555E-5,0
KAZSTSAT,2018-099AB,2026-07-20T01:16:37.363008,14.99958351,.00071903,97.4309,231.5017,320.5226,39.5473,0,U,43783,999,41623,.6151122E-5,.21E-6,0
SAUDISAT 5A,2018-102A,2026-07-20T07:07:19.525728,15.28350669,.00099411,97.3045,262.2428,27.2766,332.8994,0,U,43831,999,42073,.10994224E-3,.2965E-4,0
SAUDISAT 5B,2018-102C,2026-07-20T07:26:42.487008,15.28592209,.00107075,97.3155,265.3857,28.5796,331.6029,0,U,43833,999,42085,.10227864E-3,.2774E-4,0
GAOFEN-10R,2019-066A,2026-07-20T06:45:22.154688,14.83063510,.00065981,98.0511,155.1045,39.2907,320.8784,0,U,44622,999,36728,.77692005E-4,.577E-5,0
CARTOSAT-3,2019-081A,2026-07-20T06:52:58.910880,15.19204311,.00125626,97.4282,262.6175,43.1257,317.0959,0,U,44804,999,36849,.91122644E-4,.1853E-4,0
GAOFEN-12 01,2019-082A,2026-07-20T06:21:43.979904,14.80481797,.00007332,97.8112,206.7732,64.2050,295.9238,0,U,44819,999,35898,.30449652E-4,.182E-5,0
CSG-1,2019-092A,2026-07-20T06:23:49.068096,14.82159077,.00014653,97.8899,24.3917,94.7404,265.3976,0,U,44873,999,35637,.26087257E-4,.155E-5,0
NEMO-HD,2020-061F,2026-07-20T07:01:02.163360,15.45204520,.00010378,97.1895,262.9218,111.2924,248.8436,0,U,46277,999,32709,.14727498E-3,.6904E-4,0
SENTINEL-6A,2020-086A,2026-07-20T00:48:16.707744,12.80930225,.00077857,66.0411,66.8309,269.6761,90.3362,0,U,46984,999,26453,.80617E-6,-.61E-6,0
CAS500-1,2021-022A,2026-07-20T07:18:29.669184,15.20163618,.00057033,97.3854,95.8801,154.6394,205.5122,0,U,47932,999,29579,.15718856E-3,.3335E-4,0
GAOFEN-12 02,2021-026A,2026-07-20T06:42:47.406240,14.80318224,.00060929,97.9938,199.3278,119.0364,241.1459,0,U,48079,999,28665,.29022752E-4,.168E-5,0
PLEIADES NEO 3,2021-034A,2026-07-19T07:56:44.636352,14.81672056,.00013939,97.8937,274.6355,96.6622,263.4750,0,U,48268,999,28241,.26537661E-4,.157E-5,0
PLEIADES NEO 4,2021-073E,2026-07-20T05:49:33.451392,14.81674198,.00013578,97.8935,275.5300,97.1513,262.9855,0,U,49070,999,26626,.10733616E-3,.793E-5,0
LANDSAT 9,2021-088A,2026-07-20T03:47:40.767936,14.57097592,.00010859,98.2265,270.9338,91.6550,268.4773,0,U,49260,999,25580,.45905298E-4,.161E-5,0
CSG-2,2022-008A,2026-07-19T08:31:21.408096,14.82176378,.00016613,97.8896,23.4868,89.8481,270.2922,0,U,51444,999,24135,.45603774E-4,.311E-5,0
GAOFEN-12 03,2022-069A,2026-07-20T05:56:37.103424,14.80081093,.00023641,97.8229,88.2779,67.1868,292.9594,0,U,52912,999,21950,.10569709E-3,.75E-5,0
SWOT,2022-173A,2026-07-20T05:08:49.159104,14.00172559,.0000229,77.6116,350.7220,67.1048,293.0127,0,U,54754,999,18377,.4578821E-5,.4E-7,0
GAOFEN-12 04,2023-123A,2026-07-20T04:49:04.730880,14.79780663,.00032517,97.9097,118.7237,39.7449,320.4000,0,U,57654,999,15751,.72067464E-4,.491E-5,0
PARS 1,2024-039Q,2026-07-20T06:11:55.626144,15.46356776,.00091311,97.4847,183.2399,9.7349,350.4075,0,U,59065,999,13375,.142177E-3,.6935E-4,0
RESURS-P 4,2024-061A,2026-07-20T07:24:15.712416,15.32298016,.00032078,97.2761,148.6366,81.9619,278.1987,0,U,59371,999,12883,.57962874E-4,.1732E-4,0
LEGION 1,2024-081A,2026-07-20T05:06:12.601440,15.16862954,.00078367,97.5007,278.7196,248.8094,111.2303,0,U,59625,999,12254,.99869021E-4,.1899E-4,0
LEGION 2,2024-081B,2026-07-20T05:50:04.173504,15.16842732,.00106211,97.5007,278.8463,214.4006,145.6540,0,U,59626,999,12255,.10183089E-3,.1937E-4,0
ALOS-4 (DAICHI-4),2024-123A,2026-07-19T19:48:16.268256,14.79476713,.00015429,97.9221,297.5326,98.1551,261.9835,0,U,60182,999,11070,.89648823E-4,.618E-5,0
LEGION 3,2024-146A,2026-07-20T05:07:54.620832,15.15671515,.00077191,45.0013,213.4878,1.5851,358.5051,0,U,60452,999,10703,.8091718E-4,.1302E-4,0
LEGION 4,2024-146B,2026-07-20T06:42:18.196128,15.15701517,.00092804,45.0022,305.0037,145.0618,215.0871,0,U,60453,999,10589,.12085266E-3,.2078E-4,0
SENTINEL-2C,2024-157A,2026-07-20T04:18:33.751584,14.30816557,.00010283,98.5681,275.4927,106.0889,254.0407,0,U,60989,999,9770,.32384356E-4,.41E-6,0
IONOSFERA-M 1,2024-199A,2026-07-20T05:55:33.011040,14.22759764,.00020827,98.7128,74.0633,65.3729,294.7666,0,U,61735,999,13240,.2019925E-4,.1E-7,0
