GAOFEN-11 01            
1 43585U 18063A   26201.29819647  .00007854  00000+0  11367-3 0  9994
2 43585  97.1266 268.1010 0003871 180.9022 179.2227 15.56161847445497
ICESAT-2                
1 43613U 18070A   26201.22232217  .00005097  00000+0  18531-3 0  9996
2 43613  92.0086 299.9069 0005053  47.4970 312.6705 15.28227057437504
HYSIS                   
1 43719U 18096A   26201.30224483  .00000555  00000+0  82795-4 0  9994
2 43719  97.9819 267.7879 0001759  83.5597 276.5814 14.78676363412319
KAZSTSAT                
1 43783U 18099AB  26201.05321022  .00000021  00000+0  61511-5 0  9999
2 43783  97.4309 231.5017 0007190 320.5226  39.5473 14.99958351416236
SAUDISAT 5A             
1 43831U 18102A   26201.29675377  .00002965  00000+0  10994-3 0  9995
2 43831  97.3045 262.2428 0009941  27.2766 332.8994 15.28350669420737
SAUDISAT 5B             
1 43833U 18102C   26201.31021397  .00002774  00000+0  10228-3 0  9995
2 43833  97.3155 265.3857 0010707  28.5796 331.6029 15.28592209420857
GAOFEN-10R              
1 44622U 19066A   26201.28150642  .00000577  00000+0  77692-4 0  9992
2 44622  98.0511 155.1045 0006598  39.2907 320.8784 14.83063510367282
CARTOSAT-3              
1 44804U 19081A   26201.28679295  .00001853  00000+0  91123-4 0  9994
2 44804  97.4282 262.6175 0012562  43.1257 317.0959 15.19204311368492
GAOFEN-12 01            
1 44819U 19082A   26201.26509236  .00000182  00000+0  30450-4 0  9996
2 44819  97.8112 206.7732 0000733  64.2050 295.9238 14.80481797358983
CSG-1                   
1 44873U 19092A   26201.26654014  .00000155  00000+0  26087-4 0  9993
2 44873  97.8899  24.3917 0001465  94.7404 265.3976 14.82159077356374
NEMO-HD                 
1 46277U 20061F   26201.29238615  .00006904  00000+0  14727-3 0  9994
2 46277  97.1895 262.9218 0001037 111.2924 248.8436 15.45204520327092
SENTINEL-6A             
1 46984U 20086A   26201.03352671 -.00000061  00000+0  80617-6 0  9990
2 46984  66.0411  66.8309 0007785 269.6761  90.3362 12.80930225264532
CAS500-1                
1 47932U 21022A   26201.30451006  .00003335  00000+0  15719-3 0  9991
2 47932  97.3854  95.8801 0005703 154.6394 205.5122 15.20163618295793
GAOFEN-12 02            
1 48079U 21026A   26201.27971535  .00000168  00000+0  29023-4 0  9993
2 48079  97.9938 199.3278 0006092 119.0364 241.1459 14.80318224286651
PLEIADES NEO 3          
1 48268U 21034A   26200.33107218  .00000157  00000+0  26538-4 0  9993
2 48268  97.8937 274.6355 0001393  96.6622 263.4750 14.81672056282416
PLEIADES NEO 4          
1 49070U 21073E   26201.24274828  .00000793  00000+0  10734-3 0  9997
2 49070  97.8935 275.5300 0001357  97.1513 262.9855 14.81674198266265
LANDSAT 9               
1 49260U 21088A   26201.15811074  .00000161  00000+0  45905-4 0  9992
2 49260  98.2265 270.9338 0001085  91.6550 268.4773 14.57097592255803
CSG-2                   
1 51444U 22008A   26200.35510889  .00000311  00000+0  45604-4 0  9996
2 51444  97.8896  23.4868 0001661  89.8481 270.2922 14.82176378241356
GAOFEN-12 03            
1 52912U 22069A   26201.24765166  .00000750  00000+0  10570-3 0  9993
2 52912  97.8229  88.2779 0002364  67.1868 292.9594 14.80081093219501
SWOT                    
1 54754U 22173A   26201.21445786  .00000004  00000+0  45788-5 0  9998
2 54754  77.6116 350.7220 0000229  67.1048 293.0127 14.00172559183777
GAOFEN-12 04            
1 57654U 23123A   26201.20074920  .00000491  00000+0  72067-4 0  9992
2 57654  97.9097 118.7237 0003251  39.7449 320.4000 14.79780663157515
PARS 1                  
1 59065U 24039Q   26201.25828271  .00006935  00000+0  14218-3 0  9990
2 59065  97.4847 183.2399 0009131   9.7349 350.4075 15.46356776133750
RESURS-P 4              
1 59371U 24061A   26201.30851519  .00001732  00000+0  57963-4 0  9997
2 59371  97.2761 148.6366 0003207  81.9619 278.1987 15.32298016128830
LEGION 1                
1 59625U 24081A   26201.21264585  .00001899  00000+0  99869-4 0  9997
2 59625  97.5007 278.7196 0007836 248.8094 111.2303 15.16862954122548
LEGION 2                
1 59626U 24081B   26201.24310386  .00001937  00000+0  10183-3 0  9996
2 59626  97.5007 278.8463 0010621 214.4006 145.6540 15.16842732122552
ALOS-4 (DAICHI-4)       
1 60182U 24123A   26200.82518829  .00000618  00000+0  89649-4 0  9996
2 60182  97.9221 297.5326 0001542  98.1551 261.9835 14.79476713110706
LEGION 3                
1 60452U 24146A   26201.21382663  .00001302  00000+0  80917-4 0  9990
2 60452  45.0013 213.4878 0007719   1.5851 358.5051 15.15671515107034
LEGION 4                
1 60453U 24146B   26201.27937727  .00002078  00000+0  12085-3 0  9995
2 60453  45.0022 305.0037 0009280 145.0618 215.0871 15.15701517105895
SENTINEL-2C             
1 60989U 24157A   26201.17955731  .00000041  00000+0  32384-4 0  9998
2 60989  98.5681 275.4927 0001028 106.0889 254.0407 14.30816557 97705
IONOSFERA-M 1           
1 61735U 24199A   26201.24690985  .00000001  00000+0  20199-4 0  9996
2 61735  98.7128  74.0633 0002082  65.3729 294.7666 14.22759764132403
